NORAD_CAT_ID,OBJECT_NAME,OBJECT_TYPE,EPOCH,MEAN_MOTION,ECCENTRICITY,INCLINATION,RA_OF_ASC_NODE,ARG_OF_PERICENTER,MEAN_ANOMALY,BSTAR,MEAN_MOTION_DOT,MEAN_MOTION_DDOT,TLE_LINE0,TLE_LINE1,TLE_LINE2,SEMIMAJOR_AXIS,PERIOD,APOGEE,PERIGEE,DECAYED
49132.0,STARLINK-3090,PAYLOAD,2021-11-26 14:00:01,15.45625025,0.0003253,69.9999,281.2907,270.9054,320.4494,-0.014815,-0.0065865,0.0,0 STARLINK-3090,1 49132U 21082C   21330.58335648 -.00658650  00000-0 -14815-1 0  9995,2 49132  69.9999 281.2907 0003253 270.9054 320.4494 15.45625025  3689,6807.679,93.166,431.759,427.33,0.0
49132.0,STARLINK-3090,PAYLOAD,2021-11-26 22:00:00,15.45156452,0.0003384,70.0003,280.3877,277.7899,7.4132,-0.0149729999999999,-0.00655357,0.0,0 STARLINK-3090,1 49132U 21082C   21330.91667824 -.00655357  00000-0 -14973-1 0  9992,2 49132  70.0003 280.3877 0003384 277.7899   7.4132 15.45156452  3674,6809.055,93.194,433.225,428.616,0.0
49132.0,STARLINK-3090,PAYLOAD,2021-11-27 06:00:02,15.44689145,0.0003458,70.0002,279.4853,279.6096,59.0101,-0.015247,-0.00656669,0.0,0 STARLINK-3090,1 49132U 21082C   21331.25002315 -.00656669  00000-0 -15247-1 0  9990,2 49132  70.0002 279.4853 0003458 279.6096  59.0101 15.44689145 11710,6810.429,93.223,434.649,429.939,0.0
49132.0,STARLINK-3090,PAYLOAD,2021-11-27 14:00:01,15.44220629,0.0003461,70.0001,278.5835,270.2089,121.1386,-0.015469,-0.00655748,0.0,0 STARLINK-3090,1 49132U 21082C   21331.58334491 -.00655748  00000-0 -15469-1 0  9992,2 49132  70.0001 278.5835 0003461 270.2089 121.1386 15.44220629  3694,6811.806,93.251,436.029,431.31300000000016,0.0
49132.0,STARLINK-3090,PAYLOAD,2021-11-27 22:00:00,15.43753514,0.0003553,70.0002,277.6823,281.7126,161.8656,-0.015718,-0.00655819,0.0,0 STARLINK-3090,1 49132U 21082C   21331.91667824 -.00655819  00000-0 -15718-1 0  9994,2 49132  70.0002 277.6823 0003553 281.7126 161.8656 15.43753514  3664,6813.18,93.279,437.466,432.624,0.0
49132.0,STARLINK-3090,PAYLOAD,2021-11-28 14:00:01,15.42818982,0.0003249,70.0,275.8817,270.1367,276.221,-0.016237,-0.00656291,0.0,0 STARLINK-3090,1 49132U 21082C   21332.58334491 -.00656291  00000-0 -16237-1 0  9991,2 49132  70.0000 275.8817 0003249 270.1367 276.2210 15.42818982 11910,6815.931,93.336,440.011,435.582,0.0
49132.0,STARLINK-3090,PAYLOAD,2021-11-28 22:00:01,15.42350677,0.0003341,70.0002,274.9826,280.6405,316.3304,-0.0164349999999999,-0.00654106,0.0,0 STARLINK-3090,1 49132U 21082C   21332.91668981 -.00654106  00000-0 -16435-1 0  9995,2 49132  70.0002 274.9826 0003341 280.6405 316.3304 15.42350677  3670,6817.311,93.364,441.453,436.898,0.0
49132.0,STARLINK-3090,PAYLOAD,2021-11-29 14:00:01,15.41415753,0.0003396,69.9999,273.1859,268.7846,67.5385,-0.017005,-0.00663615,0.0,0 STARLINK-3090,1 49132U 21082C   21333.58334491 -.00663615  00000-0 -17005-1 0  9994,2 49132  69.9999 273.1859 0003396 268.7846  67.5385 15.41415753  3675,6820.066999999999,93.421,444.24800000000016,439.616,0.0
49132.0,STARLINK-3090,PAYLOAD,2021-11-29 22:00:00,15.40948981,0.0003511,70.0003,272.2887,278.1819,107.0077,-0.017275,-0.00663761,0.0,0 STARLINK-3090,1 49132U 21082C   21333.91667824 -.00663761  00000-0 -17275-1 0  9991,2 49132  70.0003 272.2887 0003511 278.1819 107.0077 15.40948981  3692,6821.444,93.449,445.704,440.914,0.0
49132.0,STARLINK-3090,PAYLOAD,2021-11-30 00:00:00,15.40825472,0.000333,69.9999,272.0637,279.1947,208.1271,-0.017079,-0.00654195,0.0,0 STARLINK-3090,1 49132U 21082C   21334.00001157 -.00654195  00000-0 -17079-1 0  9996,2 49132  69.9999 272.0637 0003330 279.1947 208.1271 15.40825472 12133,6821.809,93.456,445.945,441.402,0.0
49132.0,STARLINK-3090,PAYLOAD,2021-11-30 10:00:00,15.40249433,0.0003336,69.9997,270.9436,271.8587,5.5796,-0.017769,-0.0066682,0.0,0 STARLINK-3090,1 49132U 21082C   21334.41667824 -.00666820  00000-0 -17769-1 0  9994,2 49132  69.9997 270.9436 0003336 271.8587   5.5796 15.40249433  3655,6823.51,93.491,447.651,443.098,0.0
49132.0,STARLINK-3090,PAYLOAD,2021-11-30 22:00:00,15.39545412,0.0003416,70.0002,269.6003,283.6833,244.7439,-0.018045,-0.0066198,0.0,0 STARLINK-3090,1 49132U 21082C   21334.91667824 -.00661980  00000-0 -18045-1 0  9999,2 49132  70.0002 269.6003 0003416 283.6833 244.7439 15.39545412  3671,6825.59,93.534,449.786,445.12300000000016,0.0
49132.0,STARLINK-3090,PAYLOAD,2021-12-01 00:00:00,15.39428173,0.0003384,70.0002,269.3765,281.7923,348.3438,-0.018096,-0.00661334,0.0,0 STARLINK-3090,1 49132U 21082C   21335.00001157 -.00661334  00000-0 -18096-1 0  9990,2 49132  70.0002 269.3765 0003384 281.7923 348.3438 15.39428173 12287,6825.936,93.541,450.111,445.491,0.0
49132.0,STARLINK-3090,PAYLOAD,2021-12-01 14:00:01,15.38610965,0.0003255,70.0,267.8113,271.0538,350.0616,-0.018644,-0.00663165,0.0,0 STARLINK-3090,1 49132U 21082C   21335.58334491 -.00663165  00000-0 -18644-1 0  9996,2 49132  70.0000 267.8113 0003255 271.0538 350.0616 15.38610965  3678,6828.353,93.591,452.441,447.995,0.0
49132.0,STARLINK-3090,PAYLOAD,2021-12-01 22:00:00,15.381437699999998,0.0003432,70.0002,266.9177,279.0031,27.6153,-0.01892,-0.00662837,0.0,0 STARLINK-3090,1 49132U 21082C   21335.91667824 -.00662837  00000-0 -18920-1 0  9994,2 49132  70.0002 266.9177 0003432 279.0031  27.6153 15.38143770  3660,6829.736,93.619,453.945,449.257,0.0
49132.0,STARLINK-3090,PAYLOAD,2021-12-02 06:00:00,15.37674201,0.000341,70.0,266.0247,273.1116,78.4501,-0.019106,-0.00659431,0.0,0 STARLINK-3090,1 49132U 21082C   21336.25001157 -.00659431  00000-0 -19106-1 0  9996,2 49132  70.0000 266.0247 0003410 273.1116  78.4501 15.37674201 12480,6831.126,93.648,455.32,450.661,0.0
49132.0,STARLINK-3090,PAYLOAD,2021-12-02 14:00:01,15.37206078,0.000344,70.0001,265.1325,270.328,125.6162,-0.019399,-0.00659442,0.0,0 STARLINK-3090,1 49132U 21082C   21336.58334491 -.00659442  00000-0 -19399-1 0  9998,2 49132  70.0001 265.1325 0003440 270.3280 125.6162 15.37206078  3573,6832.513000000001,93.676,456.728,452.027,0.0
49132.0,STARLINK-3090,PAYLOAD,2021-12-02 22:00:00,15.36741635,0.0003514,70.0001,264.2409,281.1902,158.5741,-0.019845,-0.00664193,0.0,0 STARLINK-3090,1 49132U 21082C   21336.91667824 -.00664193  00000-0 -19845-1 0  9999,2 49132  70.0001 264.2409 0003514 281.1902 158.5741 15.36741635  3647,6833.889,93.705,458.156,453.353,0.0
49132.0,STARLINK-3090,PAYLOAD,2021-12-03 06:00:00,15.36268576,0.0003372,69.9999,263.3497,277.1294,205.8976,-0.019836,-0.00654505,0.0,0 STARLINK-3090,1 49132U 21082C   21337.25001157 -.00654505  00000-0 -19836-1 0  9994,2 49132  69.9999 263.3497 0003372 277.1294 205.8976 15.36268576 12631,6835.292,93.734,459.462,454.852,0.0
49132.0,STARLINK-3090,PAYLOAD,2021-12-03 14:00:01,15.35803857,0.0003285,69.9999,262.4593,273.6562,252.0696,-0.020276,-0.00658762,0.0,0 STARLINK-3090,1 49132U 21082C   21337.58334491 -.00658762  00000-0 -20276-1 0  9999,2 49132  69.9999 262.4593 0003285 273.6562 252.0696 15.35803857  3662,6836.670999999999,93.762,460.782,456.29,0.0
49132.0,STARLINK-3090,PAYLOAD,2021-12-03 22:00:00,15.35338117,0.0003342,70.0002,261.5697,282.1505,285.7142,-0.020687,-0.00661919,0.0,0 STARLINK-3090,1 49132U 21082C   21337.91667824 -.00661919  00000-0 -20687-1 0  9999,2 49132  70.0002 261.5697 0003342 282.1505 285.7142 15.35338117  3651,6838.053000000001,93.79,462.204,457.633,0.0
49132.0,STARLINK-3090,PAYLOAD,2021-12-04 06:00:00,15.34867147,0.0003252,69.9999,260.6804,272.0086,337.4361,-0.0208,-0.00655997,0.0,0 STARLINK-3090,1 49132U 21082C   21338.25001157 -.00655997  00000-0 -20800-1 0  9994,2 49132  69.9999 260.6804 0003252 272.0086 337.4361 15.34867147 12786,6839.4519999999975,93.819,463.541,459.093,0.0
49132.0,STARLINK-3090,PAYLOAD,2021-12-04 22:00:00,15.33936478,0.0003426,70.0004,258.9041,279.7929,51.1258,-0.021676,-0.00663153,0.0,0 STARLINK-3090,1 49132U 21082C   21338.91667824 -.00663153  00000-0 -21676-1 0  9991,2 49132  70.0004 258.9041 0003426 279.7929  51.1258 15.33936478  3645,6842.218000000003,93.876,466.427,461.739,0.0
49132.0,STARLINK-3090,PAYLOAD,2021-12-05 06:00:02,15.33466319,0.0003422,70.0,258.0169,272.5323,98.3479,-0.021825,-0.00658193,0.0,0 STARLINK-3090,1 49132U 21082C   21339.25002315 -.00658193  00000-0 -21825-1 0  9991,2 49132  70.0000 258.0169 0003422 272.5323  98.3479 15.33466319 12941,6843.6169999999975,93.905,467.824,463.14,0.0
49132.0,STARLINK-3090,PAYLOAD,2021-12-05 14:00:01,15.32997579,0.0003425,70.0,257.1304,270.2931,139.8602,-0.022114,-0.00657172,0.0,0 STARLINK-3090,1 49132U 21082C   21339.58334491 -.00657172  00000-0 -22114-1 0  9998,2 49132  70.0000 257.1304 0003425 270.2931 139.8602 15.32997579  3669,6845.012,93.934,469.221,464.532,0.0
49132.0,STARLINK-3090,PAYLOAD,2021-12-05 22:00:00,15.32534186,0.0003496,70.0003,256.2445,281.7665,167.1609,-0.022693,-0.00664094,0.0,0 STARLINK-3090,1 49132U 21082C   21339.91667824 -.00664094  00000-0 -22693-1 0  9997,2 49132  70.0003 256.2445 0003496 281.7665 167.1609 15.32534186  3658,6846.391,93.962,470.65,465.86300000000006,0.0
49132.0,STARLINK-3090,PAYLOAD,2021-12-06 06:00:00,15.32061851,0.0003325,70.0,255.359,273.26,213.884,-0.022698,-0.00655085,0.0,0 STARLINK-3090,1 49132U 21082C   21340.25001157 -.00655085  00000-0 -22698-1 0  9992,2 49132  70.0000 255.3590 0003325 273.2600 213.8840 15.32061851 13091,6847.799,93.991,471.94,467.387,0.0
49132.0,STARLINK-3090,PAYLOAD,2021-12-06 14:00:01,15.31595471,0.0003268,69.9999,254.4743,275.2208,249.6407,-0.023096,-0.00656766,0.0,0 STARLINK-3090,1 49132U 21082C   21340.58335648 -.00656766  00000-0 -23096-1 0  9993,2 49132  69.9999 254.4743 0003268 275.2208 249.6407 15.31595471  3664,6849.189,94.02,473.292,468.815,0.0
49132.0,STARLINK-3090,PAYLOAD,2021-12-06 22:00:00,15.31130204,0.0003317,70.0002,253.5903,281.4402,280.4506,-0.023603,-0.00661175,0.0,0 STARLINK-3090,1 49132U 21082C   21340.91667824 -.00661175  00000-0 -23603-1 0  9998,2 49132  70.0002 253.5903 0003317 281.4402 280.4506 15.31130204  3662,6850.576,94.048,474.713,470.169,0.0
